H1 CPF  1  HTS 2022 12 15 12  8491 larets           NONE
H2  0304206 5557    27944 2022 12 15  0  0  0 2022 12 20  0  0  0   180 1 1  0 0 0
H5  0.0560 
H9 
10 0 59928  47880.00000  0    5839928.621     907829.847   -3887632.526
10 0 59928  48060.00000  0    5059737.060     486323.005   -4922241.198
10 0 59928  48240.00000  0    4085838.078      70277.524   -5777818.917
10 0 59928  48420.00000  0    2954048.040    -320663.494   -6423592.186
10 0 59928  48600.00000  0    1706200.209    -668825.042   -6836412.528
10 0 59928  48780.00000  0     388592.913    -959252.190   -7001506.861
10 0 59928  48960.00000  0    -949699.829   -1180318.186   -6912949.077
10 0 59928  49140.00000  0   -2258605.858   -1324170.299   -6573849.420
10 0 59928  49320.00000  0   -3488873.605   -1387003.845   -5996262.565
10 0 59928  49500.00000  0   -4593881.583   -1369156.232   -5200815.308
10 0 59928  49680.00000  0   -5531398.048   -1275019.362   -4216054.417
10 0 59928  49860.00000  0   -6265226.930   -1112769.004   -3077507.688
10 0 59928  50040.00000  0   -6766673.149    -893917.984   -1826471.231
10 0 59928  50220.00000  0   -7015752.801    -632707.507    -508547.478
10 0 59928  50400.00000  0   -7002078.547    -345360.149     828021.820
10 0 59928  50580.00000  0   -6725356.660     -49228.389    2134159.433
10 0 59928  50760.00000  0   -6195464.495     238112.319    3361812.645
10 0 59928  50940.00000  0   -5432093.974     499780.717    4465785.006
10 0 59928  51120.00000  0   -4463977.585     720466.318    5405449.162
10 0 59928  51300.00000  0   -3327745.619     887218.428    6146263.943
10 0 59928  51480.00000  0   -2066477.109     990108.742    6661044.395
10 0 59928  51660.00000  0    -728007.999    1022737.425    6930944.112
10 0 59928  51840.00000  0     636926.727     982562.628    6946116.970
10 0 59928  52020.00000  0    1976638.942     871039.349    6706054.221
10 0 59928  52200.00000  0    3240460.269     693564.956    6219596.359
10 0 59928  52380.00000  0    4380679.288     459232.180    5504618.182
10 0 59928  52560.00000  0    5354375.029     180398.294    4587389.205
10 0 59928  52740.00000  0    6125078.080    -127914.542    3501625.918
10 0 59928  52920.00000  0    6664193.919    -448758.484    2287254.464
10 0 59928  53100.00000  0    6952114.504    -764107.163     988921.126
10 0 59928  53280.00000  0    6978963.080   -1055770.563    -345686.652
10 0 59928  53460.00000  0    6744936.677   -1306327.588   -1667644.079
10 0 59928  53640.00000  0    6260220.601   -1500028.067   -2928633.272
10 0 59928  53820.00000  0    5544489.686   -1623615.805   -4082739.306
10 0 59928  54000.00000  0    4626034.474   -1667031.218   -5088120.086
10 0 59928  54180.00000  0    3540569.171   -1623961.614   -5908487.910
10 0 59928  54360.00000  0    2329785.440   -1492219.917   -6514354.259
10 0 59928  54540.00000  0    1039727.471   -1273935.864   -6884009.124
10 0 59928  54720.00000  0    -280948.264    -975557.875   -7004224.185
10 0 59928  54900.00000  0   -1582768.714    -607669.502   -6870672.968
10 0 59928  55080.00000  0   -2817244.220    -184624.140   -6488070.784
10 0 59928  55260.00000  0   -3938624.098     275992.957   -5870031.047
10 0 59928  55440.00000  0   -4905563.140     754060.399   -5038644.600
10 0 59928  55620.00000  0   -5682656.306    1227755.445   -4023775.350
10 0 59928  55800.00000  0   -6241785.799    1674505.098   -2862073.498
10 0 59928  55980.00000  0   -6563216.948    2072015.314   -1595715.095
10 0 59928  56160.00000  0   -6636385.591    2399331.164    -270900.522
10 0 59928  56340.00000  0   -6460324.821    2637875.721    1063842.974
10 0 59928  56520.00000  0   -6043691.745    2772410.827    2359482.836
10 0 59928  56700.00000  0   -5404385.311    2791867.825    3568342.925
10 0 59928  56880.00000  0   -4568772.026    2689997.384    4645919.043
10 0 59928  57060.00000  0   -3570559.849    2465802.889    5552561.096
10 0 59928  57240.00000  0   -2449387.117    2123739.955    6254951.090
10 0 59928  57420.00000  0   -1249192.684    1673672.781    6727326.727
10 0 59928  57600.00000  0     -16445.183    1130587.589    6952403.551
10 0 59928  57780.00000  0    1201683.797     514079.224    6921977.937
10 0 59928  57960.00000  0    2359140.148    -152368.209    6637208.505
10 0 59928  58140.00000  0    3412741.874    -842283.726    6108571.640
10 0 59928  58320.00000  0    4323812.183   -1527266.242    5355489.675
10 0 59928  58500.00000  0    5059631.503   -2178158.226    4405634.468
10 0 59928  58680.00000  0    5594653.522   -2766290.420    3293925.757
10 0 59928  58860.00000  0    5911436.571   -3264745.930    2061244.785
10 0 59928  59040.00000  0    6001237.304   -3649582.469     752906.689
10 0 59928  59220.00000  0    5864241.463   -3900952.542    -583046.409
10 0 59928  59400.00000  0    5509417.583   -4004060.503   -1897661.826
10 0 59928  59580.00000  0    4954001.362   -3949905.063   -3142918.522
10 0 59928  59760.00000  0    4222644.850   -3735773.546   -4273506.340
10 0 59928  59940.00000  0    3346283.505   -3365468.916   -5248468.375
10 0 59928  60120.00000  0    2360787.113   -2849264.281   -6032642.531
10 0 59928  60300.00000  0    1305469.923   -2203600.086   -6597857.728
10 0 59928  60480.00000  0     221525.190   -1450542.858   -6923869.523
10 0 59928  60660.00000  0    -849559.891    -617023.658   -6999012.873
10 0 59928  60840.00000  0   -1867549.603     266108.918   -6820569.576
10 0 59928  61020.00000  0   -2794926.309    1165196.445   -6394856.505
10 0 59928  61200.00000  0   -3598237.827    2045011.320   -5737033.882
10 0 59928  61380.00000  0   -4249294.552    2870099.740   -4870636.585
10 0 59928  61560.00000  0   -4726183.026    3606191.129   -3826817.761
10 0 59928  61740.00000  0   -5014048.093    4221620.691   -2643307.570
10 0 59928  61920.00000  0   -5105608.539    4688706.967   -1363109.181
10 0 59928  62100.00000  0   -5001375.652    4985017.472     -32960.903
10 0 59928  62280.00000  0   -4709550.840    5094455.141    1298386.263
10 0 59928  62460.00000  0   -4245594.464    5008096.916    2582005.108
10 0 59928  62640.00000  0   -3631479.367    4724731.041    3770655.178
10 0 59928  62820.00000  0   -2894669.023    4251064.631    4820578.131
10 0 59928  63000.00000  0   -2066880.445    3601592.084    5693148.956
10 0 59928  63180.00000  0   -1182693.045    2798129.348    6356314.059
10 0 59928  63360.00000  0    -278075.570    1869039.986    6785758.751
10 0 59928  63540.00000  0     611095.464     848195.550    6965772.882
10 0 59928  63720.00000  0    1450470.738    -226287.144    6889801.486
10 0 59928  63900.00000  0    2208564.082   -1313486.281    6560669.412
10 0 59928  64080.00000  0    2857943.863   -2371247.829    5990478.757
10 0 59928  64260.00000  0    3376242.486   -3357837.258    5200178.568
10 0 59928  64440.00000  0    3746946.168   -4233610.888    4218812.437
10 0 59928  64620.00000  0    3959936.045   -4962641.683    3082462.402
10 0 59928  64800.00000  0    4011755.871   -5514228.887    1832915.542
10 0 59928  64980.00000  0    3905592.174   -5864217.532     516099.718
10 0 59928  65160.00000  0    3650967.234   -5996058.581    -819647.931
10 0 59928  65340.00000  0    3263163.863   -5901559.329   -2125405.389
10 0 59928  65520.00000  0    2762408.458   -5581282.360   -3353502.943
10 0 59928  65700.00000  0    2172862.323   -5044578.060   -4459286.717
10 0 59928  65880.00000  0    1521474.834   -4309254.934   -5402731.635
10 0 59928  66060.00000  0     836767.426   -3400919.942   -6149840.401
10 0 59928  66240.00000  0     147606.797   -2352033.618   -6673795.004
10 0 59928  66420.00000  0    -517984.112   -1200724.335   -6955838.372
10 0 59928  66600.00000  0   -1133929.982      10592.002   -6985876.172
10 0 59928  66780.00000  0   -1677089.944    1236739.973   -6762796.271
10 0 59928  66960.00000  0   -2128101.743    2431416.835   -6294507.182
10 0 59928  67140.00000  0   -2472059.799    3548890.273   -5597699.354
10 0 59928  67320.00000  0   -2699011.537    4545720.997   -4697325.147
10 0 59928  67500.00000  0   -2804254.473    5382456.836   -3625790.485
10 0 59928  67680.00000  0   -2788416.190    6025228.808   -2421862.341
10 0 59928  67860.00000  0   -2657308.850    6447181.409   -1129321.514
10 0 59928  68040.00000  0   -2421559.343    6629665.804     204612.025
10 0 59928  68220.00000  0   -2096028.427    6563125.903    1531021.993
10 0 59928  68400.00000  0   -1699037.167    6247616.448    2801148.500
10 0 59928  68580.00000  0   -1251437.514    5692901.849    3968245.570
10 0 59928  68760.00000  0    -775586.795    4918146.868    4989353.626
10 0 59928  68940.00000  0    -294275.273    3951211.721    5826918.909
10 0 59928  69120.00000  0     170339.243    2827590.059    6450182.640
10 0 59928  69300.00000  0     597730.959    1589047.872    6836299.467
10 0 59928  69480.00000  0     969900.280     282023.369    6971151.014
10 0 59928  69660.00000  0    1272125.982   -1044145.148    6849837.764
10 0 59928  69840.00000  0    1493547.937   -2339100.751    6476847.729
10 0 59928  70020.00000  0    1627561.070   -3553400.656    5865894.885
10 0 59928  70200.00000  0    1672006.318   -4640431.633    5039426.832
10 0 59928  70380.00000  0    1629154.414   -5558232.052    4027814.694
10 0 59928  70560.00000  0    1505487.109   -6271159.951    2868249.646
10 0 59928  70740.00000  0    1311279.970   -6751329.336    1603364.924
10 0 59928  70920.00000  0    1060007.198   -6979742.825     279642.199
10 0 59928  71100.00000  0     767597.566   -6947069.785   -1054340.972
10 0 59928  71280.00000  0     451576.422   -6654016.276   -2349752.433
10 0 59928  71460.00000  0     130148.032   -6111264.884   -3559334.947
10 0 59928  71640.00000  0    -178731.480   -5339011.813   -4639143.815
10 0 59928  71820.00000  0    -458247.030   -4366129.730   -5550125.222
10 0 59928  72000.00000  0    -693538.946   -3229011.824   -6259474.967
10 0 59928  72180.00000  0    -872402.358   -1970160.445   -6741744.692
99
